[{"OBJECT_NAME":"STARLINK-33802","OBJECT_ID":"2025-127Y","EPOCH":"2026-03-09T07:12:03.617568","MEAN_MOTION":15.27567178,"ECCENTRICITY":0.00022923,"INCLINATION":43.005,"RA_OF_ASC_NODE":182.3191,"ARG_OF_PERICENTER":253.0323,"MEAN_ANOMALY":107.0277,"EPHEMERIS_TYPE":0,"CLASSIFICATION_TYPE":"U","NORAD_CAT_ID":64392,"ELEMENT_SET_NO":999,"REV_AT_EPOCH":4245,"BSTAR":0.00061841549,"MEAN_MOTION_DOT":0.00016788,"MEAN_MOTION_DDOT":0},{"OBJECT_NAME":"H-2A R\/B","OBJECT_ID":"2006-002B","EPOCH":"2026-03-09T22:32:18.942432","MEAN_MOTION":15.16426804,"ECCENTRICITY":0.00518947,"INCLINATION":98.2413,"RA_OF_ASC_NODE":215.9838,"ARG_OF_PERICENTER":240.1322,"MEAN_ANOMALY":119.4746,"EPHEMERIS_TYPE":0,"CLASSIFICATION_TYPE":"U","NORAD_CAT_ID":28932,"ELEMENT_SET_NO":999,"REV_AT_EPOCH":9447,"BSTAR":0.00057792596,"MEAN_MOTION_DOT":0.00011556,"MEAN_MOTION_DDOT":0}]
